start=new Date('2022-08-20T00:00:00.000Z').valueOf();
sats=[{"COUNTRY_CODE":"US","ECCENTRICITY":"0.00016000","RCS_SIZE":"LARGE","NORAD_CAT_ID":"48452","BSTAR":"-0.00000804520000","TLE_LINE1":"1 48452U 21040AA  22231.76638633 -.00000401  00000-0 -80452-5 0  9993","MEAN_ELEMENT_THEORY":"SGP4","TLE_LINE2":"2 48452  53.0533 248.1980 0001600  70.4786 289.6375 15.06396076 71006","TIME_SYSTEM":"UTC","RA_OF_ASC_NODE":"248.1980","EPHEMERIS_TYPE":"0","OBJECT_ID":"2021-040AA","INCLINATION":"53.0533","PERIOD":"95.592","APOAPSIS":"548.334","DECAY_DATE":null,"OBJECT_TYPE":"PAYLOAD","ARG_OF_PERICENTER":"70.4786","PERIAPSIS":"546.118","FILE":"3540705","SITE":"AFETR","EPOCH":"2022-08-19T18:23:35.778912","ELEMENT_SET_NO":"999","REF_FRAME":"TEME","MEAN_MOTION":"15.06396076","LAUNCH_DATE":"2021-05-09","REV_AT_EPOCH":"7100","OBJECT_NAME":"STARLINK-2703","MEAN_ANOMALY":"289.6375","GP_ID":"210546116","MEAN_MOTION_DOT":"-0.00000401","CLASSIFICATION_TYPE":"U","CENTER_NAME":"EARTH","MEAN_MOTION_DDOT":"0.0000000000000","SEMIMAJOR_AXIS":"6925.361"},{"INCLINATION":"53.0549","RA_OF_ASC_NODE":"248.2472","EPHEMERIS_TYPE":"0","OBJECT_ID":"2021-040AB","OBJECT_TYPE":"PAYLOAD","PERIOD":"95.592","APOAPSIS":"548.153","DECAY_DATE":null,"COUNTRY_CODE":"US","ECCENTRICITY":"0.00013730","MEAN_ELEMENT_THEORY":"SGP4","TLE_LINE2":"2 48453  53.0549 248.2472 0001373  64.1518 295.9612 15.06403725 71005","TIME_SYSTEM":"UTC","NORAD_CAT_ID":"48453","RCS_SIZE":"LARGE","TLE_LINE1":"1 48453U 21040AB  22231.76269638  .00000340  00000-0  41689-4 0  9997","BSTAR":"0.00004168900000","CLASSIFICATION_TYPE":"U","CENTER_NAME":"EARTH","MEAN_MOTION_DOT":"0.00000340","MEAN_MOTION_DDOT":"0.0000000000000","SEMIMAJOR_AXIS":"6925.337","FILE":"3540705","SITE":"AFETR","EPOCH":"2022-08-19T18:18:16.967232","ARG_OF_PERICENTER":"64.1518","PERIAPSIS":"546.251","LAUNCH_DATE":"2021-05-09","REV_AT_EPOCH":"7100","OBJECT_NAME":"STARLINK-2620","GP_ID":"210545867","MEAN_ANOMALY":"295.9612","ELEMENT_SET_NO":"999","REF_FRAME":"TEME","MEAN_MOTION":"15.06403725"},{"TLE_LINE2":"2 48454  53.0517 248.2673 0001217  72.5837 287.5285 15.06402072 71005","MEAN_ELEMENT_THEORY":"SGP4","TIME_SYSTEM":"UTC","TLE_LINE1":"1 48454U 21040AC  22231.75901356  .00000521  00000-0  53875-4 0  9998","BSTAR":"0.00005387500000","NORAD_CAT_ID":"48454","RCS_SIZE":"LARGE","COUNTRY_CODE":"US","ECCENTRICITY":"0.00012170","OBJECT_TYPE":"PAYLOAD","APOAPSIS":"548.050","DECAY_DATE":null,"PERIOD":"95.592","INCLINATION":"53.0517","OBJECT_ID":"2021-040AC","EPHEMERIS_TYPE":"0","RA_OF_ASC_NODE":"248.2673","MEAN_ANOMALY":"287.5285","GP_ID":"210547118","LAUNCH_DATE":"2021-05-09","OBJECT_NAME":"STARLINK-2654","REV_AT_EPOCH":"7100","MEAN_MOTION":"15.06402072","ELEMENT_SET_NO":"999","REF_FRAME":"TEME","EPOCH":"2022-08-19T18:12:58.771584","SITE":"AFETR","FILE":"3540705","PERIAPSIS":"546.364","ARG_OF_PERICENTER":"72.5837","SEMIMAJOR_AXIS":"6925.342","MEAN_MOTION_DDOT":"0.0000000000000","CLASSIFICATION_TYPE":"U","CENTER_NAME":"EARTH","MEAN_MOTION_DOT":"0.00000521"},{"OBJECT_TYPE":"PAYLOAD","PERIOD":"95.592","APOAPSIS":"548.363","DECAY_DATE":null,"INCLINATION":"53.0540","EPHEMERIS_TYPE":"0","RA_OF_ASC_NODE":"248.2714","OBJECT_ID":"2021-040AD","TLE_LINE2":"2 48455  53.0540 248.2714 0001680  64.2894 295.8268 15.06404465 70991","MEAN_ELEMENT_THEORY":"SGP4","TIME_SYSTEM":"UTC","RCS_SIZE":"LARGE","NORAD_CAT_ID":"48455","BSTAR":"0.00008599900000","TLE_LINE1":"1 48455U 21040AD  22231.75532818  .00001000  00000-0  85999-4 0  9997","COUNTRY_CODE":"US","ECCENTRICITY":"0.00016800","MEAN_MOTION_DDOT":"0.0000000000000","SEMIMAJOR_AXIS":"6925.335","CLASSIFICATION_TYPE":"U","CENTER_NAME":"EARTH","MEAN_MOTION_DOT":"0.00001000","LAUNCH_DATE":"2021-05-09","OBJECT_NAME":"STARLINK-2497","REV_AT_EPOCH":"7099","MEAN_ANOMALY":"295.8268","GP_ID":"210547369","ELEMENT_SET_NO":"999","REF_FRAME":"TEME","MEAN_MOTION":"15.06404465","FILE":"3540705","SITE":"AFETR","EPOCH":"2022-08-19T18:07:40.354752","ARG_OF_PERICENTER":"64.2894","PERIAPSIS":"546.036"},{"CLASSIFICATION_TYPE":"U","CENTER_NAME":"EARTH","MEAN_MOTION_DOT":"0.00000199","SEMIMAJOR_AXIS":"6925.360","MEAN_MOTION_DDOT":"0.0000000000000","EPOCH":"2022-08-19T18:02:22.017408","SITE":"AFETR","FILE":"3540705","PERIAPSIS":"545.975","ARG_OF_PERICENTER":"73.4723","MEAN_ANOMALY":"286.6464","GP_ID":"210545617","LAUNCH_DATE":"2021-05-09","REV_AT_EPOCH":"7099","OBJECT_NAME":"STARLINK-2508","MEAN_MOTION":"15.06396104","ELEMENT_SET_NO":"999","REF_FRAME":"TEME","INCLINATION":"53.0528","OBJECT_ID":"2021-040AE","RA_OF_ASC_NODE":"248.2996","EPHEMERIS_TYPE":"0","OBJECT_TYPE":"PAYLOAD","APOAPSIS":"548.476","DECAY_DATE":null,"PERIOD":"95.592","COUNTRY_CODE":"US","ECCENTRICITY":"0.00018050","MEAN_ELEMENT_THEORY":"SGP4","TLE_LINE2":"2 48456  53.0528 248.2996 0001805  73.4723 286.6464 15.06396104 70998","TIME_SYSTEM":"UTC","BSTAR":"0.00003228300000","TLE_LINE1":"1 48456U 21040AE  22231.75164372  .00000199  00000-0  32283-4 0  9990","NORAD_CAT_ID":"48456","RCS_SIZE":"LARGE"},{"COUNTRY_CODE":"US","ECCENTRICITY":"0.00012910","RCS_SIZE":"LARGE","NORAD_CAT_ID":"48458","BSTAR":"-0.00000187890000","TLE_LINE1":"1 48458U 21040AG  22231.76410169 -.00000309  00000-0 -18789-5 0  9992","TLE_LINE2":"2 48458  53.0543 253.3266 0001291  82.0748 278.0387 15.06394064 71641","MEAN_ELEMENT_THEORY":"SGP4","TIME_SYSTEM":"UTC","EPHEMERIS_TYPE":"0","RA_OF_ASC_NODE":"253.3266","OBJECT_ID":"2021-040AG","INCLINATION":"53.0543","PERIOD":"95.593","APOAPSIS":"548.126","DECAY_DATE":null,"OBJECT_TYPE":"PAYLOAD","ARG_OF_PERICENTER":"82.0748","PERIAPSIS":"546.338","SITE":"AFETR","FILE":"3540705","EPOCH":"2022-08-19T18:20:18.386016","ELEMENT_SET_NO":"999","REF_FRAME":"TEME","MEAN_MOTION":"15.06394064","LAUNCH_DATE":"2021-05-09","OBJECT_NAME":"STARLINK-2698","REV_AT_EPOCH":"7164","MEAN_ANOMALY":"278.0387","GP_ID":"210546367","MEAN_MOTION_DOT":"-0.00000309","CLASSIFICATION_TYPE":"U","CENTER_NAME":"EARTH","MEAN_MOTION_DDOT":"0.0000000000000","SEMIMAJOR_AXIS":"6925.367"},{"TIME_SYSTEM":"UTC","MEAN_ELEMENT_THEORY":"SGP4","TLE_LINE2":"2 48459  53.0537 253.6228 0001522  63.7694 296.3451 15.06401120 70937","NORAD_CAT_ID":"48459","RCS_SIZE":"LARGE","BSTAR":"0.00004109100000","TLE_LINE1":"1 48459U 21040AH  22231.75675504  .00000331  00000-0  41091-4 0  9992","ECCENTRICITY":"0.00015220","COUNTRY_CODE":"US","OBJECT_TYPE":"PAYLOAD","PERIOD":"95.592","DECAY_DATE":null,"APOAPSIS":"548.264","INCLINATION":"53.0537","EPHEMERIS_TYPE":"0","RA_OF_ASC_NODE":"253.6228","OBJECT_ID":"2021-040AH","REV_AT_EPOCH":"7093","OBJECT_NAME":"STARLINK-2579","LAUNCH_DATE":"2021-05-09","MEAN_ANOMALY":"296.3451","GP_ID":"210546619","ELEMENT_SET_NO":"999","REF_FRAME":"TEME","MEAN_MOTION":"15.06401120","SITE":"AFETR","FILE":"3540705","EPOCH":"2022-08-19T18:09:43.635456","ARG_OF_PERICENTER":"63.7694","PERIAPSIS":"546.156","MEAN_MOTION_DDOT":"0.0000000000000","SEMIMAJOR_AXIS":"6925.345","CENTER_NAME":"EARTH","CLASSIFICATION_TYPE":"U","MEAN_MOTION_DOT":"0.00000331"},{"EPHEMERIS_TYPE":"0","RA_OF_ASC_NODE":"253.1931","OBJECT_ID":"2021-040AJ","INCLINATION":"53.0535","PERIOD":"95.592","DECAY_DATE":null,"APOAPSIS":"548.385","OBJECT_TYPE":"PAYLOAD","ECCENTRICITY":"0.00016720","COUNTRY_CODE":"US","NORAD_CAT_ID":"48460","RCS_SIZE":"LARGE","TLE_LINE1":"1 48460U 21040AJ  22231.77514348 -.00000477  00000-0 -13091-4 0  9996","BSTAR":"-0.00001309100000","TIME_SYSTEM":"UTC","TLE_LINE2":"2 48460  53.0535 253.1931 0001672  58.0956 302.0195 15.06395546 71448","MEAN_ELEMENT_THEORY":"SGP4","MEAN_MOTION_DOT":"-0.00000477","CENTER_NAME":"EARTH","CLASSIFICATION_TYPE":"U","MEAN_MOTION_DDOT":"0.0000000000000","SEMIMAJOR_AXIS":"6925.362","ARG_OF_PERICENTER":"58.0956","PERIAPSIS":"546.069","SITE":"AFETR","FILE":"3540705","EPOCH":"2022-08-19T18:36:12.396672","ELEMENT_SET_NO":"999","REF_FRAME":"TEME","MEAN_MOTION":"15.06395546","REV_AT_EPOCH":"7144","OBJECT_NAME":"STARLINK-2582","LAUNCH_DATE":"2021-05-09","MEAN_ANOMALY":"302.0195","GP_ID":"210546870"},{"TIME_SYSTEM":"UTC","MEAN_ELEMENT_THEORY":"SGP4","TLE_LINE2":"2 48461  53.0538 254.6198 0001523  66.1883 293.9265 15.06401167 70898","NORAD_CAT_ID":"48461","RCS_SIZE":"LARGE","TLE_LINE1":"1 48461U 21040AK  22231.45814548  .00002182  00000-0  16535-3 0  9995","BSTAR":"0.00016535000000","ECCENTRICITY":"0.00015230","COUNTRY_CODE":"US","OBJECT_TYPE":"PAYLOAD","PERIOD":"95.592","DECAY_DATE":null,"APOAPSIS":"548.265","INCLINATION":"53.0538","RA_OF_ASC_NODE":"254.6198","EPHEMERIS_TYPE":"0","OBJECT_ID":"2021-040AK","REV_AT_EPOCH":"7089","OBJECT_NAME":"STARLINK-2693","LAUNCH_DATE":"2021-05-09","MEAN_ANOMALY":"293.9265","GP_ID":"210515314","ELEMENT_SET_NO":"999","REF_FRAME":"TEME","MEAN_MOTION":"15.06401167","SITE":"AFETR","FILE":"3540406","EPOCH":"2022-08-19T10:59:43.769472","ARG_OF_PERICENTER":"66.1883","PERIAPSIS":"546.155","MEAN_MOTION_DDOT":"0.0000000000000","SEMIMAJOR_AXIS":"6925.345","CENTER_NAME":"EARTH","CLASSIFICATION_TYPE":"U","MEAN_MOTION_DOT":"0.00002182"},{"ELEMENT_SET_NO":"999","REF_FRAME":"TEME","MEAN_MOTION":"15.06395064","REV_AT_EPOCH":"7146","OBJECT_NAME":"STARLINK-2683","LAUNCH_DATE":"2021-05-09","GP_ID":"210522552","MEAN_ANOMALY":"276.6453","ARG_OF_PERICENTER":"83.4696","PERIAPSIS":"546.255","SITE":"AFETR","FILE":"3540561","EPOCH":"2022-08-19T18:32:56.154624","MEAN_MOTION_DDOT":"0.0000000000000","SEMIMAJOR_AXIS":"6925.364","MEAN_MOTION_DOT":"0.00000057","CENTER_NAME":"EARTH","CLASSIFICATION_TYPE":"U","RCS_SIZE":"LARGE","NORAD_CAT_ID":"48462","BSTAR":"0.00002272900000","TLE_LINE1":"1 48462U 21040AL  22231.77287216  .00000057  00000-0  22729-4 0  9999","TIME_SYSTEM":"UTC","TLE_LINE2":"2 48462  53.0536 258.4656 0001406  83.4696 276.6453 15.06395064 71461","MEAN_ELEMENT_THEORY":"SGP4","ECCENTRICITY":"0.00014060","COUNTRY_CODE":"US","PERIOD":"95.592","DECAY_DATE":null,"APOAPSIS":"548.202","OBJECT_TYPE":"PAYLOAD","EPHEMERIS_TYPE":"0","RA_OF_ASC_NODE":"258.4656","OBJECT_ID":"2021-040AL","INCLINATION":"53.0536"}];
